CENTISPACE-1 OBJECT G   
1 68356U 26060G   26091.86763564  .00000055  00000+0  38819-4 0  9997
2 68356  54.9880 347.0457 0014071 325.3041  34.7040 14.75311209  1513
CENTISPACE-1 OBJECT H   
1 68357U 26060H   26090.51191146  .00002097  00000+0  33642-3 0  9996
2 68357  54.9825 352.5691 0014896 321.7973  38.1970 14.75426695  1317
CENTISPACE-1 OBJECT J   
1 68358U 26060J   26090.91843375  .00000091  00000+0  44083-4 0  9993
2 68358  54.9876 350.9118 0014725 324.9275  35.0754 14.75410591  1371
CENTISPACE-1 OBJECT K   
1 68359U 26060K   26091.73090155  .00000049  00000+0  37853-4 0  9995
2 68359  54.9775 347.5897 0015116 326.6312  33.3734 14.75493203  1495
RASSVET-3 1             
1 68360U 26061A   26090.65705623  .00127932  45424-5  43734-3 0  9991
2 68360  82.2962  99.7107 0026761  45.1037 315.2400 15.89002217  1268
RASSVET-3 2             
1 68361U 26061B   26090.65764539  .00066037  36253-6  23031-3 0  9990
2 68361  82.2971  99.7121 0027321  44.8164 315.5307 15.88526069  1269
RASSVET-3 3             
1 68362U 26061C   26090.65752558  .00063107  23369-6  21986-3 0  9995
2 68362  82.2970  99.7116 0027163  44.7138 315.6316 15.88549972  1266
RASSVET-3 4             
1 68363U 26061D   26090.65741016  .00061936  18393-6  21556-3 0  9995
2 68363  82.2971  99.7117 0027190  44.5884 315.7567 15.88567095  1260
RASSVET-3 5             
1 68364U 26061E   26090.65732667  .00066220  37193-6  23030-3 0  9997
2 68364  82.2970  99.7112 0027131  44.6670 315.6779 15.88592069  1267
RASSVET-3 6             
1 68365U 26061F   26090.65719027  .00077066  90660-6  26705-3 0  9993
2 68365  82.2971  99.7112 0026941  44.7847 315.5592 15.88687592  1262
RASSVET-3 7             
1 68366U 26061G   26090.65717145  .00061830  18010-6  21483-3 0  9992
2 68366  82.2970  99.7112 0026925  44.6743 315.6691 15.88611878  1263
RASSVET-3 8             
1 68367U 26061H   26090.65722354  .00063268  24145-6  22000-3 0  9990
2 68367  82.2970  99.7109 0026929  44.6140 315.7292 15.88599119  1266
RASSVET-3 9             
1 68368U 26061J   26090.65698166  .00117868  36680-5  40633-3 0  9998
2 68368  82.2968  99.7106 0026602  44.7263 315.6146 15.88838410  1263
RASSVET-3 10            
1 68369U 26061K   26090.65700494  .00065118  32340-6  22598-3 0  9997
2 68369  82.2971  99.7109 0026776  44.5811 315.7607 15.88648903  1269
RASSVET-3 11            
1 68370U 26061L   26090.65677140  .00065557  34380-6  22715-3 0  9994
2 68370  82.2970  99.7104 0026563  44.4425 315.8970 15.88690838  1267
RASSVET-3 12            
1 68371U 26061M   26090.65663523  .00066259  37632-6  22899-3 0  9991
2 68371  82.2970  99.7103 0026505  44.4421 315.8970 15.88746118  1262
